GONETS-M 19             
1 46488U 20068C   25298.98235446  .00000029  00000+0  13617-3 0  9994
2 46488  82.4922 132.8235 0013302 195.8022 164.2644 12.42864075230156
DEKART                  
1 46493U 20068H   25298.92268138  .00015833  00000+0  53856-3 0  9996
2 46493  97.8712 287.6704 0012176  43.7915 316.4287 15.30465961279854
NORBI                   
1 46494U 20068J   25298.94772840  .00026174  00000+0  73624-3 0  9994
2 46494  97.8670 291.3595 0010060  36.7461 323.4470 15.36427379280093
SALSAT                  
1 46495U 20068K   25298.91757979  .00011517  00000+0  46157-3 0  9994
2 46495  97.8760 283.6618 0012449  49.4623 310.7696 15.25134422279592
ICEYE-X6                
1 46497U 20068M   25298.95231103  .00008179  00000+0  62203-3 0  9996
2 46497  98.0808 277.0179 0008039 143.6214 216.5558 15.02382700278039
NETSAT-4                
1 46504U 20068U   25298.93537741  .00020132  00000+0  60105-3 0  9992
2 46504  97.8582 285.0519 0009458  79.0550 281.1755 15.34616491279739
NETSAT-3                
1 46505U 20068V   25298.93231831  .00019884  00000+0  62206-3 0  9990
2 46505  97.8601 283.6673 0009119  89.2954 270.9332 15.33137252279674
NETSAT-1                
1 46506U 20068W   25298.93183266  .00015576  00000+0  58387-3 0  9998
2 46506  97.8641 280.3965 0008717 102.4686 257.7527 15.27320176279457
NETSAT-2                
1 46507U 20068X   25298.94399991  .00021982  00000+0  65354-3 0  9994
2 46507  97.8594 284.5070 0007881  99.9291 260.2840 15.34743042279671
TIANQI-6                
1 46810U 20076D   25298.68183156  .00006817  00000+0  47385-3 0  9999
2 46810  35.0007  45.4027 0011033 265.9999  93.9449 15.04825721273202
KSM1-C                  
1 46906U 20081B   25298.79963441  .00013692  00000+0  59763-3 0  9998
2 46906  36.8942  60.6996 0003743  57.7913 302.3198 15.21509543273388
KSM1-D                  
1 46907U 20081C   25298.80046281  .00012622  00000+0  57412-3 0  9996
2 46907  36.8967  65.8866 0004832  71.3387 288.7884 15.20120790273354
KSM1-A                  
1 46912U 20081H   25298.76981380  .00012554  00000+0  55668-3 0  9990
2 46912  36.8964  61.8218 0002348 148.3657 211.7232 15.21000633273402
R2                      
1 46913U 20081J   25298.52785721  .00012390  00000+0  55469-3 0  9993
2 46913  36.8992  62.2961 0007604  96.6873 263.4740 15.20656647276186
KSM1-B                  
1 46914U 20081K   25298.77652743  .00012359  00000+0  56463-3 0  9998
2 46914  36.9014  66.1529 0006113  98.2741 261.8699 15.19970576276444
GONETS-M 20             
1 47227U 20091A   25298.91982601  .00000043  00000+0  24284-3 0  9995
2 47227  82.5002  88.0587 0020154 333.2142  26.7895 12.42854937221970
GONETS-M 21             
1 47228U 20091B   25298.89327560  .00000045  00000+0  25757-3 0  9998
2 47228  82.4928  86.9268 0014171 348.2573  11.8174 12.42875341221962
GONETS-M 22             
1 47229U 20091C   25298.94712604  .00000035  00000+0  18051-3 0  9990
2 47229  82.4986  87.6820 0020950 327.9483  32.0322 12.42862906221924
CUBEL                   
1 47448U 21006AM  25298.58786012  .00022820  00000+0  65663-3 0  9991
2 47448  97.2702 346.7532 0005712 308.9244  51.1490 15.35770089263681
ASTROCAST-0103          
1 47487U 21006CC  25298.92102326  .00043793  00000+0  63856-3 0  9996
2 47487  97.2871 359.2307 0002586 233.4016 126.7001 15.55573012264468
ASTROCAST-0104          
1 47519U 21006DK  25298.70464762  .00266428  00000+0  21861-2 0  9994
2 47519  97.2724 357.7680 0003782 233.5925 126.4989 15.69653675264413
ARKTIKA-M 1             
1 47719U 21016A   25273.30456647 -.00000067  00000+0  00000+0 0  9994
2 47719  63.1648  93.9278 7163271 268.8764  16.0765  2.00626972 33571
STARLINK-2342           
1 47883U 21021Z   25298.88342985  .00002328  00000+0  17512-3 0  9992
2 47883  53.0521 161.7898 0001241  96.2657 263.8473 15.06406835255970
GRUS-1B                 
1 47934U 21022C   25298.95763543  .00002471  00000+0  21218-3 0  9992
2 47934  97.5631 184.4781 0017986  35.4794 324.7621 14.98229947250812
2021-022F               
1 47937U 21022F   25298.97161061  .00010662  00000+0  39203-3 0  9998
2 47937  97.4060 195.3409 0009902 193.6360 166.4614 15.28025412253881
WILDTRACKCUBE-SIMBA     
1 47941U 21022K   25298.99041655  .00071977  00000+0  97155-3 0  9997
2 47941  97.4063 207.4704 0009356 140.5146 219.6793 15.57499635254635
UNISAT-7                
1 47945U 21022P   25298.96094994  .00015672  00000+0  49661-3 0  9991
2 47945  97.4040 197.4306 0010016 180.3936 179.7300 15.32761649253880
2021-022Q               
1 47946U 21022Q   25298.80478098  .00422470  68694-4  14287-2 0  9997
2 47946  97.4027 215.6682 0010451 115.6863 244.5490 15.89837992255171
2021-022X               
1 47953U 21022X   25298.95574154  .00038083  00000+0  79607-3 0  9994
2 47953  97.4047 201.8865 0009250 164.8646 195.2881 15.45351352254034
2021-022AC              
1 47958U 21022AC  25298.99897198  .00044897  00000+0  79871-3 0  9992
2 47958  97.3996 203.4326 0009057 156.2585 203.9086 15.49983024253240
GLOBAL-9                
1 47971U 21023G   25298.90215096  .00021784  00000+0  57643-3 0  9993
2 47971  44.9827 117.7740 0007192 270.2550  89.7512 15.38054463258782
AII-BRAVO               
1 48270U 21034C   25298.63651318  .00006988  00000+0  55454-3 0  9996
2 48270  97.5896 353.8313 0008427  13.6670 346.4780 15.00782883244405
TYVAK-182A              
1 48271U 21034D   25298.73498205  .00007025  00000+0  52498-3 0  9990
2 48271  97.6054 356.7463 0007290  55.4107 304.7805 15.03082581244571
CSS (TIANHE)            
1 48274U 21035A   25298.94371639  .00034113  00000+0  40107-3 0  9990
2 48274  41.4668 307.0613 0011121 283.2529  76.7070 15.60657669256565
TYVAK-0130              
1 48606U 21041BF  25298.57307286  .00010796  00000+0  46499-3 0  9993
2 48606  53.0017  32.2869 0009775 148.0651 212.0939 15.23085270244576
HAIYANG-2D              
1 48621U 21043A   25298.98508725 -.00000011  00000+0  63803-4 0  9997
2 48621  65.9975 167.7842 0008155 279.4421  80.5725 13.83371247224157
2021-050D               
1 48843U 21050D   25298.97438933  .00009343  00000+0  40317-3 0  9993
2 48843  97.3578  15.0061 0002110  21.4268 338.7056 15.22739007243308
BRIK-II                 
1 48876U 21058F   25298.48958208  .00316347  50736-4  62700-3 0  9996
2 48876  60.6471 317.4480 0018591  40.0698 320.1792 15.99287745242130
TYVAK-0173              
1 48892U 21059P   25298.93573509  .00003649  00000+0  47959-3 0  9993
2 48892  96.0060  68.6681 0011056 102.9503 257.2949 14.80563853233562
TUBIN                   
1 48900U 21059X   25298.97449743  .00143553  00000+0  76129-3 0  9999
2 48900  97.6718 121.0979 0001752  72.8450 287.3008 15.80127209241720
MANDRAKE 2 ABLE         
1 48907U 21059AE  25298.92289493  .00020793  00000+0  45410-3 0  9994
2 48907  97.6998 107.7983 0006007 127.9024 232.2768 15.44213152240847
MANDRAKE 2 BAKER        
1 48908U 21059AF  25298.93381704  .00022463  00000+0  44863-3 0  9991
2 48908  97.6984 109.4088 0005151 112.4307 247.7488 15.46829508240930
PACE-1                  
1 48909U 21059AG  25298.97063081  .00037573  00000+0  59030-3 0  9991
2 48909  97.6852 111.0096 0004436  91.8332 268.3429 15.53547737241165
YAM-3                   
1 48915U 21059AN  25298.91898983  .00015924  00000+0  38319-3 0  9992
2 48915  97.6949 106.8096 0006879 116.5206 243.6746 15.41358793240817
FARADAY_PHOENIX         
1 48924U 21059AX  25298.96088459  .00026299  00000+0  48612-3 0  9990
2 48924  97.6931 112.6327 0008428 101.1327 259.0871 15.49008497241144
DEMO8 (TENZING)         
1 48951U 21059CA  25298.96696792  .00020865  00000+0  44756-3 0  9993
2 48951  97.7017 111.3585 0009211 120.0400 240.1762 15.44717784241023
ASTROCAST-0201          
1 48954U 21059CD  25298.46619242  .00093849  00000+0  75800-3 0  9992
2 48954  97.6509 117.8870 0006512 192.7007 167.4091 15.70535938241607
ASTROCAST-0203          
1 48955U 21059CE  25298.74637249  .00091503  00000+0  73062-3 0  9994
2 48955  97.6531 117.7205 0003823 185.2983 174.8239 15.70837886241643
ASTROCAST-0205          
1 48960U 21059CK  25298.95409938  .00100437  00000+0  66442-3 0  9996
2 48960  97.6474 118.3314 0001551 295.0901  65.0202 15.75255740241693
NAPA-2                  
1 48963U 21059CN  25298.95381829  .00039467  00000+0  61084-3 0  9998
2 48963  97.6873 110.0673 0005679 100.9335 259.2556 15.53945297241054
JILIN-1 GAOFEN 3D01     
1 49004U 21061B   25298.47572553  .00237911  00000+0  12745-2 0  9994
2 49004  97.3305  17.1278 0002360  76.0273 284.1257 15.79654657240154
JILIN-1 GAOFEN 3D03     
1 49006U 21061D   25298.97307266  .00055256  00000+0  90111-3 0  9992
2 49006  97.3249   6.1583 0004742 211.3629 148.7341 15.52420989239499
XINGSHIDAI 10           
1 49007U 21061E   25298.97089683  .00053478  00000+0  88749-3 0  9991
2 49007  97.3238   6.0566 0004608 191.0524 169.0628 15.51940250239487
FENGYUN 3E              
1 49008U 21062A   25298.96723738  .00000033  00000+0  36481-4 0  9994
2 49008  98.7482 300.0522 0002501  60.8387 299.3040 14.19870266223348
ISS (NAUKA)             
1 49044U 21066A   25298.68442480  .00016775  00000+0  30693-3 0  9997
2 49044  51.6347  20.3918 0004590 337.4786  22.6000 15.49463260230441
STARLINK-3100           
1 49144U 21082Q   25298.97982365  .00000076  00000+0  14137-4 0  9992
2 49144  69.9988 274.0922 0003030 270.8569  89.2242 14.98327701225808
CUTE                    
1 49263U 21088D   25298.94653696  .00027109  00000+0  41132-3 0  9999
2 49263  97.4390  19.7967 0006777  89.1349 271.0681 15.54557899225864
2021-091B               
1 49316U 21091B   25298.96118413  .00004887  00000+0  23870-3 0  9994
2 49316  97.4477 125.1608 0013244  95.9907 264.2837 15.18647795223449
SDGSAT 1                
1 49387U 21100A   25298.93355608  .00004357  00000+0  20567-3 0  9991
2 49387  97.2982 349.2025 0009466  39.4578 320.7345 15.19915626220346
